{"type":"FeatureCollection","features":[{"type":"Feature","id":659,"geometry":{"type":"Polygon","coordinates":[[[-90.315087432,38.650102194],[-90.314855905,38.650086374],[-90.314854208,38.650101521],[-90.314764882,38.650095419],[-90.314765951,38.650085871],[-90.314282756,38.65005286],[-90.314268553,38.65003964],[-90.314280901,38.649929293],[-90.314225571,38.649925512],[-90.314228649,38.649898037],[-90.314204051,38.649896357],[-90.314255249,38.649439333],[-90.314283281,38.649420963],[-90.314647474,38.649445835],[-90.314670778,38.649237558],[-90.314592703,38.649232223],[-90.31457844,38.64924157],[-90.314559974,38.649240309],[-90.314541432,38.649223051],[-90.314573809,38.648934073],[-90.314517381,38.648930218],[-90.314521163,38.648896453],[-90.314502314,38.648895165],[-90.314505,38.648871191],[-90.314486145,38.648869902],[-90.314507169,38.648682336],[-90.31457144,38.648686728],[-90.314574485,38.648659543],[-90.314633064,38.64866355],[-90.314662306,38.648402489],[-90.314685392,38.648404067],[-90.314689197,38.648370102],[-90.315384442,38.648417599],[-90.315411068,38.64844238],[-90.315383418,38.6486892],[-90.315364913,38.648687935],[-90.315361811,38.648715631],[-90.31523911,38.648707253],[-90.315211236,38.648955942],[-90.31523255,38.648975758],[-90.315312961,38.648981251],[-90.315252003,38.649525219],[-90.315233316,38.649523942],[-90.315227993,38.649571346],[-90.315107746,38.649563129],[-90.31510249,38.649610038],[-90.315077302,38.649608317],[-90.315037058,38.649967708],[-90.315101998,38.649972139],[-90.315087432,38.650102194]],[[-90.314675157,38.649202001],[-90.31469326,38.649198737],[-90.314685928,38.649173933],[-90.314704037,38.649170667],[-90.314688919,38.649119521],[-90.314712358,38.649115295],[-90.314687288,38.649030475],[-90.314664664,38.649034554],[-90.314676069,38.64907315],[-90.314625106,38.649082339],[-90.314667333,38.649225181],[-90.314684484,38.649233551],[-90.314675157,38.649202001]]]},"properties":{"confidence":0.942028,"area_sqm":20571.2}},{"type":"Feature","id":660,"geometry":{"type":"Polygon","coordinates":[[[-90.312078268,38.648425191],[-90.311614065,38.648412531],[-90.31161437,38.648405714],[-90.311488655,38.648402285],[-90.311489286,38.64838818],[-90.311362303,38.648384717],[-90.311363165,38.648365442],[-90.311324201,38.64836438],[-90.311300179,38.648344262],[-90.311305104,38.648233827],[-90.311271125,38.648232899],[-90.311271962,38.648214214],[-90.311138549,38.648210563],[-90.311139325,38.648193214],[-90.311098891,38.648192112],[-90.311114681,38.647838999],[-90.31132965,38.647844861],[-90.31132888,38.647862081],[-90.31145756,38.647865587],[-90.311456821,38.64788212],[-90.311723184,38.647889404],[-90.311722461,38.647905577],[-90.311988825,38.647912845],[-90.311988101,38.647929043],[-90.312073527,38.647931366],[-90.312072554,38.647953141],[-90.312122138,38.647954494],[-90.312115844,38.648095306],[-90.312093041,38.648094685],[-90.312078268,38.648425191]]]},"properties":{"confidence":0.936083,"area_sqm":7592.5}},{"type":"Feature","id":661,"geometry":{"type":"Polygon","coordinates":[[[-90.312732335,38.649320416],[-90.312314962,38.649331764],[-90.31230779,38.649171347],[-90.312331851,38.649170715],[-90.31232893,38.649105468],[-90.312355208,38.649104751],[-90.312352286,38.649039109],[-90.312371922,38.649038574],[-90.312364664,38.648876605],[-90.31238516,38.648876046],[-90.312377832,38.648712144],[-90.312427016,38.648670952],[-90.31253945,38.648667877],[-90.312540348,38.648687945],[-90.312621496,38.648685734],[-90.312622273,38.648703102],[-90.312792895,38.648698449],[-90.312793614,38.64871452],[-90.312925364,38.648710919],[-90.312926203,38.648729677],[-90.313109617,38.648724683],[-90.313177935,38.648774433],[-90.313229723,38.648773021],[-90.313232943,38.648844961],[-90.313201668,38.648845814],[-90.313202374,38.648861601],[-90.313163939,38.648862649],[-90.313164645,38.648878442],[-90.313119426,38.648879676],[-90.313121733,38.648931746],[-90.31309463,38.648932485],[-90.313095561,38.648953281],[-90.312916984,38.648958153],[-90.312916194,38.648940485],[-90.312830626,38.648942819],[-90.312829957,38.648927856],[-90.312653848,38.648932663],[-90.312657223,38.6490079],[-90.312633485,38.649008548],[-90.312639245,38.649137446],[-90.312697406,38.649179812],[-90.312698892,38.64921305],[-90.312728486,38.649234602],[-90.312732335,38.649320416]]]},"properties":{"confidence":0.930945,"area_sqm":5063.6}},{"type":"Feature","id":662,"geometry":{"type":"Polygon","coordinates":[[[-90.31137486,38.649990537],[-90.311301203,38.649990537],[-90.311301204,38.649981061],[-90.311261694,38.649981061],[-90.311261694,38.649962106],[-90.311222529,38.649962106],[-90.311222529,38.649948417],[-90.311141321,38.649948424],[-90.311141321,38.649931584],[-90.311100004,38.649931584],[-90.311099985,38.649733697],[-90.311116172,38.649733697],[-90.311116176,38.64968318],[-90.311099992,38.64968318],[-90.311100007,38.649352642],[-90.311116365,38.649352641],[-90.311116367,38.649351594],[-90.311201801,38.649351596],[-90.311201801,38.649360019],[-90.311272917,38.649360019],[-90.311272917,38.649378754],[-90.311388892,38.649378753],[-90.311388892,38.649396427],[-90.311466675,38.649396427],[-90.311466675,38.649405975],[-90.311563368,38.649405973],[-90.311563367,38.649411588],[-90.311593156,38.649411588],[-90.311593165,38.649542117],[-90.311562166,38.649542117],[-90.311562173,38.649591019],[-90.311539263,38.649591019],[-90.311539266,38.649725335],[-90.311520015,38.649725335],[-90.311519999,38.649931909],[-90.311486735,38.649957888],[-90.311416661,38.649957887],[-90.31137486,38.649990537]]]},"properties":{"confidence":0.921667,"area_sqm":4125.5}},{"type":"Feature","id":663,"geometry":{"type":"Polygon","coordinates":[[[-90.312356655,38.650053938],[-90.312184746,38.650046915],[-90.312137393,38.650005843],[-90.311801397,38.649992094],[-90.31172684,38.649927422],[-90.311760889,38.649419718],[-90.312045895,38.649431386],[-90.312044728,38.649448775],[-90.312158211,38.649453423],[-90.312157265,38.649467527],[-90.312408235,38.649477778],[-90.312406573,38.649502544],[-90.312439581,38.649503896],[-90.312415108,38.649868343],[-90.312433434,38.649869092],[-90.312423962,38.650010279],[-90.312397046,38.650009177],[-90.312395894,38.650026345],[-90.312356655,38.650053938]]]},"properties":{"confidence":0.921018,"area_sqm":6131.8}},{"type":"Feature","id":664,"geometry":{"type":"Polygon","coordinates":[[[-90.312724734,38.647560907],[-90.31267108,38.647501041],[-90.312859273,38.64739812],[-90.312910716,38.64745552],[-90.31290579,38.647477337],[-90.31274725,38.647564008],[-90.312724734,38.647560907]]]},"properties":{"confidence":0.900863,"area_sqm":308.3}},{"type":"Feature","id":665,"geometry":{"type":"Polygon","coordinates":[[[-90.314874107,38.64757406],[-90.314576778,38.647541422],[-90.314588183,38.647478064],[-90.314906271,38.647512992],[-90.314897797,38.647560118],[-90.314874107,38.64757406]]]},"properties":{"confidence":0.892285,"area_sqm":323.3}},{"type":"Feature","id":666,"geometry":{"type":"Polygon","coordinates":[[[-90.311757552,38.646594038],[-90.311757561,38.646499997],[-90.312017622,38.646499999],[-90.312017631,38.646608075],[-90.311803368,38.646608074],[-90.311803368,38.646594037],[-90.311757552,38.646594038]]]},"properties":{"confidence":0.875425,"area_sqm":435.8}},{"type":"Feature","id":667,"geometry":{"type":"Polygon","coordinates":[[[-90.311719828,38.646604209],[-90.311644979,38.646604209],[-90.311644979,38.646596843],[-90.311598538,38.646596843],[-90.311598538,38.646571585],[-90.311550034,38.646571585],[-90.311550034,38.646591587],[-90.311475492,38.646591587],[-90.311475496,38.646558948],[-90.311446744,38.646558948],[-90.311446746,38.6465],[-90.31174678,38.6465],[-90.31174678,38.646581405],[-90.311719827,38.646581405],[-90.311719828,38.646604209]]]},"properties":{"confidence":0.862453,"area_sqm":420.2}},{"type":"Feature","id":668,"geometry":{"type":"Polygon","coordinates":[[[-90.316114774,38.647956027],[-90.315988305,38.647952575],[-90.315964337,38.647970031],[-90.315913115,38.647968634],[-90.315920976,38.647792821],[-90.31595009,38.647793629],[-90.315951511,38.647761851],[-90.315971669,38.6477624],[-90.315973059,38.647731324],[-90.315993243,38.647731874],[-90.315994632,38.647700798],[-90.316014801,38.647701348],[-90.31601617,38.647670732],[-90.316137925,38.647674058],[-90.316128672,38.647880826],[-90.31615076,38.647881428],[-90.316148525,38.647931446],[-90.316114774,38.647956027]]]},"properties":{"confidence":0.861758,"area_sqm":868.8}},{"type":"Feature","id":669,"geometry":{"type":"Polygon","coordinates":[[[-90.316656625,38.647798966],[-90.316564354,38.647798966],[-90.316564357,38.647732301],[-90.316582324,38.647732301],[-90.316582325,38.647703178],[-90.316672552,38.647703176],[-90.316672552,38.647704238],[-90.316699994,38.647704238],[-90.316699994,38.647791618],[-90.316656624,38.647791617],[-90.316656625,38.647798966]]]},"properties":{"confidence":0.861393,"area_sqm":192.3}},{"type":"Feature","id":670,"geometry":{"type":"Polygon","coordinates":[[[-90.316212033,38.647220554],[-90.316034947,38.647213305],[-90.316046977,38.647034031],[-90.31606825,38.647034922],[-90.316070733,38.646997917],[-90.316226544,38.647004305],[-90.316212033,38.647220554]]]},"properties":{"confidence":0.857016,"area_sqm":596.8}},{"type":"Feature","id":671,"geometry":{"type":"Polygon","coordinates":[[[-90.316600968,38.646856703],[-90.31645576,38.646850759],[-90.316462124,38.646755929],[-90.316607331,38.646761877],[-90.316600968,38.646856703]]]},"properties":{"confidence":0.852748,"area_sqm":219.1}},{"type":"Feature","id":672,"geometry":{"type":"Polygon","coordinates":[[[-90.312669552,38.649817868],[-90.312563851,38.649812094],[-90.312582234,38.649606851],[-90.312763374,38.649616744],[-90.312754514,38.649715693],[-90.312733683,38.649714556],[-90.312728491,38.649772511],[-90.312704831,38.649771219],[-90.312702667,38.649795386],[-90.312669552,38.649817868]]]},"properties":{"confidence":0.847816,"area_sqm":533.3}},{"type":"Feature","id":673,"geometry":{"type":"Polygon","coordinates":[[[-90.316302282,38.646842774],[-90.316177287,38.64685131],[-90.316170113,38.646787297],[-90.316192004,38.646785801],[-90.316186587,38.646737407],[-90.316310149,38.646728958],[-90.316320239,38.646819071],[-90.316299783,38.646820469],[-90.316302282,38.646842774]]]},"properties":{"confidence":0.844724,"area_sqm":237.2}},{"type":"Feature","id":674,"geometry":{"type":"Polygon","coordinates":[[[-90.316210755,38.649881393],[-90.316218727,38.64976259],[-90.316442304,38.649771784],[-90.316436289,38.649861414],[-90.316397035,38.649889017],[-90.316210755,38.649881393]]]},"properties":{"confidence":0.843257,"area_sqm":413.9}},{"type":"Feature","id":675,"geometry":{"type":"Polygon","coordinates":[[[-90.316411637,38.648343536],[-90.316328103,38.648343536],[-90.316328103,38.648323888],[-90.316290372,38.648323888],[-90.316290369,38.648241079],[-90.316337553,38.648204224],[-90.31640263,38.648204223],[-90.31640263,38.648207399],[-90.316441278,38.648207399],[-90.316441272,38.648331601],[-90.316411636,38.648331601],[-90.316411637,38.648343536]]]},"properties":{"confidence":0.836561,"area_sqm":300.5}},{"type":"Feature","id":676,"geometry":{"type":"Polygon","coordinates":[[[-90.316362461,38.64876109],[-90.316362457,38.648656638],[-90.316384696,38.648656638],[-90.316384697,38.648634764],[-90.316472548,38.648634764],[-90.316472547,38.648640018],[-90.31651226,38.648640019],[-90.316512261,38.648761074],[-90.316362461,38.64876109]]]},"properties":{"confidence":0.835916,"area_sqm":289.2}},{"type":"Feature","id":677,"geometry":{"type":"Polygon","coordinates":[[[-90.316101755,38.649850179],[-90.315968292,38.649850178],[-90.315968292,38.649836855],[-90.315945417,38.649836856],[-90.315945401,38.649737907],[-90.316031038,38.649737894],[-90.316031038,38.649743162],[-90.316101728,38.649743162],[-90.316101755,38.649850179]]]},"properties":{"confidence":0.835798,"area_sqm":267.8}},{"type":"Feature","id":678,"geometry":{"type":"Polygon","coordinates":[[[-90.315897552,38.648289771],[-90.315833769,38.648288915],[-90.315834128,38.64827285],[-90.315805543,38.64827246],[-90.315808938,38.64812064],[-90.315923984,38.648122194],[-90.315920856,38.648261654],[-90.315898187,38.648261345],[-90.315897552,38.648289771]]]},"properties":{"confidence":0.833536,"area_sqm":289}},{"type":"Feature","id":679,"geometry":{"type":"Polygon","coordinates":[[[-90.316157665,38.648723553],[-90.316034675,38.648718521],[-90.31604202,38.648608893],[-90.316183093,38.648614666],[-90.316177048,38.648704667],[-90.316158982,38.648703928],[-90.316157665,38.648723553]]]},"properties":{"confidence":0.82743,"area_sqm":240.4}},{"type":"Feature","id":680,"geometry":{"type":"Polygon","coordinates":[[[-90.313801654,38.649896735],[-90.313613317,38.649904443],[-90.313608044,38.649825347],[-90.313717847,38.64973011],[-90.313790279,38.649727143],[-90.313801654,38.649896735]]]},"properties":{"confidence":0.822886,"area_sqm":424.7}},{"type":"Feature","id":681,"geometry":{"type":"Polygon","coordinates":[[[-90.316347445,38.647014273],[-90.316348037,38.646987785],[-90.316394747,38.646952556],[-90.316506215,38.646954076],[-90.316505921,38.646967192],[-90.316651587,38.646969182],[-90.316678615,38.646991042],[-90.316677737,38.647030268],[-90.316361896,38.647025961],[-90.316347445,38.647014273]]]},"properties":{"confidence":0.820726,"area_sqm":332.2}},{"type":"Feature","id":682,"geometry":{"type":"Polygon","coordinates":[[[-90.315903862,38.649287139],[-90.315829973,38.649292188],[-90.315828207,38.649276426],[-90.315793188,38.649278819],[-90.315776403,38.649128852],[-90.315869077,38.64912252],[-90.315902248,38.649144258],[-90.315908037,38.649195966],[-90.315921843,38.649205014],[-90.315928476,38.64926423],[-90.315903862,38.649287139]]]},"properties":{"confidence":0.811432,"area_sqm":324.5}},{"type":"Feature","id":683,"geometry":{"type":"Polygon","coordinates":[[[-90.31584301,38.649842102],[-90.31574601,38.6498421],[-90.31574601,38.649805272],[-90.31569076,38.649805272],[-90.315690762,38.649712632],[-90.315799266,38.649712632],[-90.315799266,38.649716849],[-90.315843008,38.649716852],[-90.31584301,38.649842102]]]},"properties":{"confidence":0.811346,"area_sqm":277.6}},{"type":"Feature","id":684,"geometry":{"type":"Polygon","coordinates":[[[-90.316440511,38.649359593],[-90.316316546,38.649356212],[-90.316325074,38.649165479],[-90.316426947,38.649168255],[-90.31642519,38.649207571],[-90.316447266,38.649208173],[-90.316440511,38.649359593]]]},"properties":{"confidence":0.808155,"area_sqm":361.8}},{"type":"Feature","id":685,"geometry":{"type":"Polygon","coordinates":[[[-90.316208418,38.648339755],[-90.316095473,38.648335133],[-90.316102112,38.648236328],[-90.316121439,38.648237119],[-90.316122602,38.648219809],[-90.316241872,38.648224711],[-90.316235428,38.648320761],[-90.316208418,38.648339755]]]},"properties":{"confidence":0.808059,"area_sqm":246.6}},{"type":"Feature","id":686,"geometry":{"type":"Polygon","coordinates":[[[-90.316648789,38.648845287],[-90.316572277,38.648845273],[-90.316572277,38.648836865],[-90.316538308,38.648836865],[-90.316538307,38.648751249],[-90.316557159,38.648751249],[-90.316557151,38.64868107],[-90.316609888,38.64868107],[-90.316609887,38.648674751],[-90.316700009,38.648674753],[-90.316700002,38.6487358],[-90.316682032,38.6487358],[-90.316682025,38.648828441],[-90.316648788,38.648828441],[-90.316648789,38.648845287]]]},"properties":{"confidence":0.797162,"area_sqm":364.7}},{"type":"Feature","id":687,"geometry":{"type":"Polygon","coordinates":[[[-90.315553003,38.649782119],[-90.315553003,38.649769469],[-90.315525033,38.64976947],[-90.315525046,38.64970211],[-90.315605711,38.649702112],[-90.315605711,38.649698958],[-90.315665161,38.649698955],[-90.315665158,38.649775794],[-90.315631276,38.649775793],[-90.315631276,38.649782119],[-90.315553003,38.649782119]]]},"properties":{"confidence":0.792772,"area_sqm":171.8}},{"type":"Feature","id":688,"geometry":{"type":"Polygon","coordinates":[[[-90.316025247,38.649295605],[-90.315960636,38.649286708],[-90.315978866,38.649205996],[-90.316095343,38.649222038],[-90.316081215,38.649284613],[-90.316029343,38.649277466],[-90.316025247,38.649295605]]]},"properties":{"confidence":0.790878,"area_sqm":138.4}},{"type":"Feature","id":689,"geometry":{"type":"Polygon","coordinates":[[[-90.312934572,38.649836268],[-90.312852797,38.649825006],[-90.312817967,38.649786163],[-90.312857552,38.649610797],[-90.312943342,38.649622609],[-90.312937024,38.649650592],[-90.312977116,38.649656113],[-90.312965899,38.64970585],[-90.312990881,38.64970929],[-90.312965287,38.649822661],[-90.312938476,38.649818969],[-90.312934572,38.649836268]]]},"properties":{"confidence":0.788852,"area_sqm":445.2}},{"type":"Feature","id":690,"geometry":{"type":"Polygon","coordinates":[[[-90.316064021,38.648301433],[-90.315955304,38.648301433],[-90.315933292,38.648284242],[-90.315933296,38.648203183],[-90.315987198,38.648203183],[-90.315987198,38.648209505],[-90.316026275,38.648209505],[-90.316026275,38.648226342],[-90.316064021,38.648226342],[-90.316064021,38.648301433]]]},"properties":{"confidence":0.784679,"area_sqm":183}},{"type":"Feature","id":691,"geometry":{"type":"Polygon","coordinates":[[[-90.313521795,38.649861506],[-90.313346259,38.649842244],[-90.313363835,38.649744564],[-90.313483288,38.649757668],[-90.313478897,38.649782067],[-90.313510517,38.649785537],[-90.313507962,38.649799736],[-90.313532428,38.649802421],[-90.313521795,38.649861506]]]},"properties":{"confidence":0.778279,"area_sqm":249.7}},{"type":"Feature","id":692,"geometry":{"type":"Polygon","coordinates":[[[-90.316569278,38.648360034],[-90.316507325,38.648360034],[-90.316473627,38.648333716],[-90.316473627,38.648274757],[-90.316504177,38.648250898],[-90.316596677,38.648250898],[-90.316616449,38.648266339],[-90.316616452,38.648323195],[-90.316569278,38.648360034]]]},"properties":{"confidence":0.776912,"area_sqm":218.3}},{"type":"Feature","id":693,"geometry":{"type":"Polygon","coordinates":[[[-90.316607035,38.649363176],[-90.316544649,38.649363178],[-90.31654465,38.649356861],[-90.31648037,38.649356863],[-90.31648036,38.649250893],[-90.316503259,38.649250893],[-90.316503267,38.64920318],[-90.316608371,38.64920318],[-90.316608376,38.649257911],[-90.316627245,38.649257911],[-90.31662723,38.649340015],[-90.316607034,38.649340015],[-90.316607035,38.649363176]]]},"properties":{"confidence":0.776857,"area_sqm":325.3}},{"type":"Feature","id":694,"geometry":{"type":"Polygon","coordinates":[[[-90.314129197,38.64966621],[-90.314055847,38.649661197],[-90.31403259,38.64963955],[-90.314048908,38.64949401],[-90.314175525,38.649502666],[-90.314159441,38.649646388],[-90.314129197,38.64966621]]]},"properties":{"confidence":0.772709,"area_sqm":326.1}},{"type":"Feature","id":695,"geometry":{"type":"Polygon","coordinates":[[[-90.316699985,38.649927372],[-90.316651978,38.649927371],[-90.316651979,38.64992246],[-90.316572441,38.649922459],[-90.316572441,38.649902815],[-90.316524822,38.649902815],[-90.316524821,38.649863182],[-90.31649923,38.649863182],[-90.316499228,38.649798949],[-90.316517972,38.649798948],[-90.316517973,38.649794756],[-90.316576145,38.649794758],[-90.316576146,38.649800364],[-90.3167,38.649800352],[-90.316699985,38.649927372]]]},"properties":{"confidence":0.762219,"area_sqm":359.4}},{"type":"Feature","id":696,"geometry":{"type":"Polygon","coordinates":[[[-90.315927214,38.648091906],[-90.315856573,38.648077125],[-90.315886958,38.647988463],[-90.315957638,38.648003248],[-90.315927214,38.648091906]]]},"properties":{"confidence":0.753685,"area_sqm":106.5}},{"type":"Feature","id":697,"geometry":{"type":"Polygon","coordinates":[[[-90.31662604,38.647260825],[-90.316479343,38.647252814],[-90.316490992,38.647122633],[-90.316657035,38.647131703],[-90.316647936,38.647233335],[-90.316628596,38.647232279],[-90.31662604,38.647260825]]]},"properties":{"confidence":0.749522,"area_sqm":335.8}},{"type":"Feature","id":698,"geometry":{"type":"Polygon","coordinates":[[[-90.316448585,38.647244779],[-90.316316561,38.647235756],[-90.316330735,38.647109175],[-90.316481953,38.647119509],[-90.316469444,38.647231109],[-90.316448585,38.647244779]]]},"properties":{"confidence":0.73862,"area_sqm":303.7}},{"type":"Feature","id":699,"geometry":{"type":"Polygon","coordinates":[[[-90.316225674,38.648112652],[-90.316225684,38.648051604],[-90.316306547,38.648051591],[-90.316306547,38.6480895],[-90.316276902,38.648112652],[-90.316225674,38.648112652]]]},"properties":{"confidence":0.723562,"area_sqm":72.9}},{"type":"Feature","id":700,"geometry":{"type":"Polygon","coordinates":[[[-90.316508634,38.647956157],[-90.31638758,38.647956159],[-90.31638758,38.647949504],[-90.316266121,38.647949505],[-90.316266121,38.647930549],[-90.316223008,38.647930549],[-90.316222998,38.647857214],[-90.316244566,38.647857214],[-90.316244566,38.647829144],[-90.316264329,38.647829144],[-90.316264329,38.64779476],[-90.316297112,38.64779476],[-90.316297112,38.647788438],[-90.316349512,38.647788436],[-90.316349513,38.64779107],[-90.316462848,38.64779107],[-90.316462848,38.647806859],[-90.316508659,38.647806859],[-90.316508634,38.647956157]]]},"properties":{"confidence":0.718607,"area_sqm":672.1}},{"type":"Feature","id":701,"geometry":{"type":"Polygon","coordinates":[[[-90.315973277,38.648747748],[-90.315840339,38.648747748],[-90.315840334,38.648650904],[-90.315960654,38.648650904],[-90.315960654,38.648653694],[-90.315993932,38.648653694],[-90.315993915,38.64873163],[-90.315973277,38.648747748]]]},"properties":{"confidence":0.71386,"area_sqm":231.9}},{"type":"Feature","id":702,"geometry":{"type":"Polygon","coordinates":[[[-90.312064783,38.647944232],[-90.311450372,38.64794421],[-90.311450372,38.647935289],[-90.311304978,38.647935277],[-90.311304978,38.647928649],[-90.311181924,38.64792865],[-90.311181924,38.647910964],[-90.311099997,38.647910964],[-90.311099997,38.64783223],[-90.311304522,38.64783223],[-90.311304522,38.647851599],[-90.311387455,38.647851597],[-90.311387455,38.647868443],[-90.311429048,38.647868443],[-90.311429048,38.647874615],[-90.311596939,38.647874627],[-90.311596939,38.647890338],[-90.3117651,38.647890338],[-90.3117651,38.64790606],[-90.311933262,38.64790606],[-90.311933262,38.647921782],[-90.312064783,38.647921772],[-90.312064783,38.647944232]]]},"properties":{"confidence":0.682856,"area_sqm":918.9}},{"type":"Feature","id":703,"geometry":{"type":"Polygon","coordinates":[[[-90.316666308,38.646841064],[-90.31663398,38.646815812],[-90.31663398,38.646768424],[-90.31669999,38.646768424],[-90.316700006,38.646841064],[-90.316666308,38.646841064]]]},"properties":{"confidence":0.652931,"area_sqm":69.6}},{"type":"Feature","id":704,"geometry":{"type":"Polygon","coordinates":[[[-90.314115506,38.649898225],[-90.313977019,38.649886857],[-90.313960656,38.649871076],[-90.313975333,38.64976202],[-90.313999931,38.649764039],[-90.314004346,38.649731083],[-90.314136559,38.649741944],[-90.314115506,38.649898225]]]},"properties":{"confidence":0.647752,"area_sqm":378}},{"type":"Feature","id":705,"geometry":{"type":"Polygon","coordinates":[[[-90.316700012,38.649366338],[-90.316646101,38.649366336],[-90.316646101,38.649312661],[-90.316678475,38.649287377],[-90.316700012,38.649287377],[-90.316700012,38.649366338]]]},"properties":{"confidence":0.633093,"area_sqm":61.1}},{"type":"Feature","id":706,"geometry":{"type":"Polygon","coordinates":[[[-90.315905,38.648984228],[-90.315820128,38.648984234],[-90.315820133,38.648934754],[-90.315832244,38.648925295],[-90.315896949,38.648925295],[-90.315905009,38.64893159],[-90.315905,38.648984228]]]},"properties":{"confidence":0.62021,"area_sqm":78.1}},{"type":"Feature","id":707,"geometry":{"type":"Polygon","coordinates":[[[-90.316144477,38.649015334],[-90.316079625,38.649004568],[-90.316091155,38.648962184],[-90.316156002,38.64897295],[-90.316144477,38.649015334]]]},"properties":{"confidence":0.574536,"area_sqm":45.6}},{"type":"Feature","id":708,"geometry":{"type":"Polygon","coordinates":[[[-90.316534867,38.648164399],[-90.316388819,38.648144295],[-90.316409179,38.648054113],[-90.316506167,38.648067466],[-90.316546575,38.648112541],[-90.316534867,38.648164399]]]},"properties":{"confidence":0.539732,"area_sqm":200.1}},{"type":"Feature","id":709,"geometry":{"type":"Polygon","coordinates":[[[-90.316318821,38.648771301],[-90.31623768,38.648776845],[-90.316194382,38.648748476],[-90.316181594,38.648634566],[-90.316296472,38.648626716],[-90.316322739,38.64864393],[-90.316331202,38.648719546],[-90.316313171,38.648720778],[-90.316318821,38.648771301]]]},"properties":{"confidence":0.518209,"area_sqm":294.2}},{"type":"Feature","id":710,"geometry":{"type":"Polygon","coordinates":[[[-90.314491977,38.647530123],[-90.314277285,38.647530124],[-90.314277285,38.647515389],[-90.314069875,38.647515389],[-90.314069875,38.647499491],[-90.313948508,38.647499491],[-90.313948508,38.647483705],[-90.313827237,38.647483703],[-90.313827237,38.647467916],[-90.313746256,38.647467916],[-90.313746256,38.647459494],[-90.313579395,38.647459472],[-90.313579395,38.64745369],[-90.313424799,38.64745369],[-90.313424799,38.64743685],[-90.313347485,38.647436849],[-90.313347484,38.6474316],[-90.313293945,38.6474316],[-90.313293945,38.647430542],[-90.313250525,38.647430542],[-90.313250525,38.64740528],[-90.314515789,38.647405224],[-90.314515774,38.64750493],[-90.314491977,38.64750493],[-90.314491977,38.647530123]]]},"properties":{"confidence":0.517157,"area_sqm":1579.4}},{"type":"Feature","id":711,"geometry":{"type":"Polygon","coordinates":[[[-90.313215078,38.649802371],[-90.313087089,38.649777449],[-90.313109196,38.649708203],[-90.313272104,38.649739928],[-90.313255268,38.649792688],[-90.313220341,38.649785885],[-90.313215078,38.649802371]]]},"properties":{"confidence":0.451798,"area_sqm":180.4}},{"type":"Feature","id":712,"geometry":{"type":"Polygon","coordinates":[[[-90.313949585,38.649451873],[-90.31361066,38.649437998],[-90.313611795,38.64942109],[-90.313298711,38.649408265],[-90.313299723,38.649393183],[-90.313248797,38.649391093],[-90.313261379,38.649203315],[-90.313266734,38.649203534],[-90.313271898,38.649126677],[-90.313295725,38.649109922],[-90.313775401,38.649129568],[-90.313774335,38.649145454],[-90.314001,38.649154719],[-90.314022291,38.649173187],[-90.314009036,38.649370792],[-90.313990019,38.649370014],[-90.313986262,38.649426082],[-90.313949585,38.649451873]]]},"properties":{"confidence":0.438294,"area_sqm":3564.5}},{"type":"Feature","id":713,"geometry":{"type":"Polygon","coordinates":[[[-90.313153989,38.649862148],[-90.31306364,38.649869564],[-90.313034097,38.649850881],[-90.313025638,38.649788031],[-90.313079341,38.649736239],[-90.31308343,38.649766621],[-90.313114147,38.649786047],[-90.313184018,38.649780311],[-90.313186781,38.649800844],[-90.313273548,38.64979372],[-90.313223369,38.649842114],[-90.31315208,38.649847958],[-90.313153989,38.649862148]]]},"properties":{"confidence":0.437587,"area_sqm":258.6}},{"type":"Feature","id":714,"geometry":{"type":"Polygon","coordinates":[[[-90.315755224,38.648700836],[-90.315686393,38.648698019],[-90.315692239,38.648610668],[-90.315731908,38.64858277],[-90.315835172,38.648586985],[-90.315831123,38.648647465],[-90.315755224,38.648700836]]]},"properties":{"confidence":0.436433,"area_sqm":220.8}},{"type":"Feature","id":715,"geometry":{"type":"Polygon","coordinates":[[[-90.316276489,38.650033255],[-90.316194645,38.650041106],[-90.31618237,38.649963049],[-90.316196735,38.64994869],[-90.316257848,38.649942822],[-90.316260494,38.64995965],[-90.31628956,38.649956864],[-90.316298913,38.650016302],[-90.316274196,38.650018672],[-90.316276489,38.650033255]]]},"properties":{"confidence":0.436207,"area_sqm":140.6}},{"type":"Feature","id":716,"geometry":{"type":"Polygon","coordinates":[[[-90.316070597,38.648147376],[-90.316053369,38.64812816],[-90.316070584,38.648051909],[-90.316109324,38.648030729],[-90.316150966,38.648036463],[-90.316127267,38.648141432],[-90.316107184,38.648152415],[-90.316070597,38.648147376]]]},"properties":{"confidence":0.435511,"area_sqm":132.8}},{"type":"Feature","id":717,"geometry":{"type":"Polygon","coordinates":[[[-90.31599393,38.648647399],[-90.315870289,38.648647399],[-90.315870284,38.648645289],[-90.315859197,38.648645291],[-90.315859197,38.648609474],[-90.315882521,38.648591258],[-90.31599394,38.648591258],[-90.31599393,38.648647399]]]},"properties":{"confidence":0.41812,"area_sqm":116.3}},{"type":"Feature","id":718,"geometry":{"type":"Polygon","coordinates":[[[-90.31642084,38.649045292],[-90.316425342,38.649004999],[-90.316462786,38.648980457],[-90.316484305,38.649000486],[-90.316478842,38.649049255],[-90.31642084,38.649045292]]]},"properties":{"confidence":0.417872,"area_sqm":51.4}},{"type":"Feature","id":719,"geometry":{"type":"Polygon","coordinates":[[[-90.313940905,38.649450343],[-90.313971161,38.649430516],[-90.31398975,38.649264571],[-90.314015352,38.64926632],[-90.314025393,38.64917665],[-90.314004874,38.649157552],[-90.313287954,38.649108556],[-90.313277215,38.649204463],[-90.31324866,38.649202512],[-90.31326408,38.649064834],[-90.313340912,38.64907008],[-90.313343292,38.649048833],[-90.313362588,38.649050152],[-90.313396921,38.648743793],[-90.313443946,38.648712976],[-90.314032773,38.648753212],[-90.31403092,38.648769745],[-90.314081215,38.648773183],[-90.314012659,38.649385294],[-90.313993986,38.649384018],[-90.313986206,38.649453438],[-90.313940905,38.649450343]]]},"properties":{"confidence":0.394027,"area_sqm":4601.9}},{"type":"Feature","id":720,"geometry":{"type":"Polygon","coordinates":[[[-90.313633205,38.64943054],[-90.313600866,38.64943054],[-90.313600866,38.64942633],[-90.313573917,38.64942633],[-90.313573917,38.649422119],[-90.313541578,38.649422119],[-90.313541578,38.649417909],[-90.31350924,38.649417909],[-90.31350924,38.649413698],[-90.313466121,38.649413698],[-90.313466121,38.649409488],[-90.313390664,38.649409488],[-90.313390664,38.649405277],[-90.313325987,38.649405277],[-90.313325987,38.649401067],[-90.313288258,38.649401067],[-90.313288258,38.649396856],[-90.313272089,38.649396856],[-90.313272089,38.649392646],[-90.313250529,38.649392646],[-90.313250529,38.649380014],[-90.313266699,38.649380014],[-90.313266699,38.649384225],[-90.313277478,38.649384225],[-90.313277478,38.649388435],[-90.313288258,38.649388435],[-90.313288258,38.649392646],[-90.313299038,38.649392646],[-90.313299038,38.649396856],[-90.313342156,38.649396856],[-90.313342156,38.649401067],[-90.313396054,38.649401067],[-90.313396054,38.649405277],[-90.31349846,38.649405277],[-90.31349846,38.649409488],[-90.313530799,38.649409488],[-90.313530799,38.649413698],[-90.313552358,38.649413698],[-90.313552358,38.649417909],[-90.313579307,38.649417909],[-90.313579307,38.649422119],[-90.313606256,38.649422119],[-90.313606256,38.64942633],[-90.313633205,38.64942633],[-90.313633205,38.64943054]]]},"properties":{"confidence":0.394027,"area_sqm":36.7}},{"type":"Feature","id":721,"geometry":{"type":"Polygon","coordinates":[[[-90.315534754,38.646881808],[-90.315478688,38.646878748],[-90.315485175,38.646806301],[-90.315541238,38.646809361],[-90.315534754,38.646881808]]]},"properties":{"confidence":0.375707,"area_sqm":64.8}},{"type":"Feature","id":722,"geometry":{"type":"Polygon","coordinates":[[[-90.316669287,38.647266337],[-90.31666929,38.647102125],[-90.316700003,38.647102125],[-90.316700006,38.647266337],[-90.316669287,38.647266337]]]},"properties":{"confidence":0.370229,"area_sqm":80}}],"bbox":[-90.3167,38.6465,-90.3111,38.6501],"properties":{"backend":"rfdetr","imagery":"mo_leafoff","aoi":"University City / St. Louis County, MO","generated":"2026-07-26 — real RF-DETR on Missouri 6-inch leaf-off imagery, regularized"}}